C/2019 L3 (ATLAS),h,01/09.6201/2022,48.3597,290.7898,171.6106,1.001660,3.554466,2000,4.5,4.0
# From MPC118095
C/2019 LB7 (Kleyna),e,164.2915,3.8912,336.4940,34.55893,0.0048514,0.92806576,5.4216,04/17.0/2022,2000,g 17.0,4.0
# From MPC118843
P/2019 M2 (ATLAS),e,12.2784,307.6075,332.5774,3.027812,0.1870728,0.64785066,192.6060,04/17.0/2022,2000,g 21.2,4.0
# From MPC118095
C/2019 M3 (ATLAS),h,01/01.7570/2019,99.4843,154.9095,87.8832,1.000083,2.419446,2000,12.2,4.0
# From MPEC 2022-C56
C/2019 N1 (ATLAS),e,82.4290,13.5742,193.4425,3442,0.0000049,0.99950469,0.0000,12/01.7117/2020,2000,g  7.5,4.0
# From MPEC 2022-A21
C/2019 NJ3 (Lemmon),h,10/22.6494/2020,99.4365,142.4574,246.8870,1.001801,4.362391,2000,9.0,4.0
# From MPEC 2022-GA9
A/2019 O2,e,93.2960,48.2819,129.6627,57.49103,0.0022610,0.83157973,359.1956,04/17.0/2022,2000,g  9.5,2.0
# From MPEC 2022-H04
C/2019 O3 (Palomar),h,03/08.9719/2021,89.8190,300.3933,60.0998,1.003657,8.820044,2000,3.5,4.0
# From MPEC 2021-P47
A/2019 O4,e,115.0955,354.9082,61.8772,33.09136,0.0051776,0.88981400,4.1246,04/17.0/2022,2000,g 15.5,2.0
# From MPEC 2021-N06
C/2019 Q1 (Lemmon),h,07/20.2513/2020,155.7250,42.4734,56.1438,1.000142,4.999675,2000,8.5,4.0
# From MPC117072
A/2019 Q2,e,159.0294,188.0109,176.3268,57.32810,0.0022707,0.97802433,0.0000,07/22.0571/2019,2000,g 18.0,2.0
# From MPC117072
C/2019 Q3 (PANSTARRS),h,08/21.5387/2018,65.5271,151.3243,152.7526,1.003176,7.260072,2000,8.5,4.0
# From MPC117072
P/2019 S2 (PANSTARRS),e,10.4700,93.1392,217.0614,4.739829,0.0955125,0.20638756,109.7990,04/17.0/2022,2000,g 13.5,4.0
# From MPEC 2022-CN4
P/2019 S3 (PANSTARRS),e,8.6948,150.1607,213.0094,3.415355,0.1561530,0.47119075,150.5903,04/17.0/2022,2000,g 18.3,4.0
# From MPEC 2021-S45
C/2019 S4 (Lemmon),e,92.0455,63.1542,71.3687,230.6425,0.0002814,0.98507437,0.0000,04/07.9036/2020,2000,g 11.0,4.0
# From MPEC 2022-ED3
A/2019 T1,e,120.8747,6.9461,91.0630,38.48538,0.0041282,0.88873638,1.8885,04/17.0/2022,2000,g 13.0,2.0
# From MPEC 2022-H04
C/2019 T2 (Lemmon),e,111.4885,155.6434,239.4113,2324,0.0000088,0.99886113,0.0000,04/22.3627/2021,2000,g  9.0,4.0
# From MPEC 2022-C56
C/2019 T3 (ATLAS),e,121.8558,139.5265,112.3725,3617,0.0000045,0.99835543,0.0000,03/03.6426/2021,2000,g  6.8,4.0
# From MPEC 2022-H04
C/2019 T4 (ATLAS),e,53.6277,199.9393,351.2030,1015,0.0000305,0.99581833,0.0000,06/09.1500/2022,2000,g  5.0,4.0
# From MPEC 2021-P47
P/2019 T5 (ATLAS),e,33.4540,247.6514,189.5637,7.996006,0.0435908,0.80921887,43.1423,04/17.0/2022,2000,g 15.0,4.0
# From MPEC 2021-P47
P/2019 T6 (PANSTARRS),e,18.6961,71.2627,328.9348,5.435628,0.0777731,0.62284504,69.2904,04/17.0/2022,2000,g 15.5,4.0
# From MPC118096
P/2019 U4 (PANSTARRS),e,11.6974,200.0028,180.9933,3.520454,0.1492128,0.47583566,140.4347,04/17.0/2022,2000,g 19.0,4.0
# From MPEC 2022-H04
C/2019 U5 (PANSTARRS),h,03/29.9927/2023,113.5203,2.6383,181.5265,1.001218,3.623642,2000,4.5,4.0
# From MPEC 2022-H04
C/2019 U6 (Lemmon),e,60.9955,235.7134,329.6361,371.6859,0.0001375,0.99754015,0.0000,06/18.6599/2020,2000,g 10.0,4.0
# From MPC119998
C/2019 V1 (Borisov),e,61.8739,83.1854,51.1737,1458,0.0000177,0.99787681,0.0000,07/16.3960/2020,2000,g 11.0,4.0
# From MPEC 2022-GA9
P/2019 V2 (Groeller),e,11.8073,189.1821,335.9059,7.506429,0.0479241,0.33130856,26.1301,04/17.0/2022,2000,g 10.0,4.0
# From MPC119998
P/2019 W1 (PANSTARRS),e,23.4689,35.3814,18.6881,4.549659,0.1015631,0.26669577,109.1756,04/17.0/2022,2000,g 12.9,4.0
# From MPEC 2021-P47
P/2019 X1 (Pruyne),e,10.2474,43.6750,36.7894,6.173173,0.0642601,0.30316915,64.3026,04/17.0/2022,2000,g 10.4,4.0
# From MPC119999
C/2019 Y1 (ATLAS),e,73.3149,31.5364,57.9454,85.78131,0.0012406,0.99031595,0.0000,03/15.6624/2020,2000,g 13.7,4.0
# From MPEC 2020-L06
C/2019 Y4 (ATLAS),h,05/31.0403/2020,45.7839,120.9548,177.2798,1.001403,0.251923,2000,11.6,6.0
# From MPEC 2020-L06
C/2019 Y4-A (ATLAS),h,05/31.0403/2020,45.7839,120.9548,177.2798,1.001403,0.251923,2000,11.6,6.0
# From MPEC 2020-L06
C/2019 Y4-B (ATLAS),e,45.4186,120.6504,177.4128,1427,0.0000183,0.99982238,0.0000,05/31.0184/2020,2000,g 12.8,6.0
# From MPEC 2020-L06
C/2019 Y4-C (ATLAS),h,05/30.9973/2020,45.5660,120.6808,177.3132,1.002123,0.252980,2000,12.7,6.0
# From MPEC 2020-L06
C/2019 Y4-D (ATLAS),e,45.6083,121.0598,177.4511,68.26558,0.0017474,0.99630338,0.0000,05/31.1176/2020,2000,g 12.5,6.0
# From MPEC 2021-P47
C/2019 Y5 (PANSTARRS),e,82.7921,51.7714,303.5234,803.4408,0.0000433,0.99388140,0.0000,08/18.2159/2019,2000,g 11.0,4.0
# From MPEC 2020-K19
A/2020 A1,e,149.0302,119.2692,302.5133,24.53002,0.0081125,0.93203958,7.0292,04/17.0/2022,2000,g 18.0,2.0
# From MPEC 2020-L06
C/2020 A2 (Iwamoto),e,120.7069,286.3567,68.1622,1340,0.0000201,0.99927132,0.0000,01/08.5066/2020,2000,g 13.5,4.0
# From MPEC 2020-L06
C/2020 A3 (ATLAS),h,07/29.8349/2019,146.7676,120.3852,271.1596,1.026051,5.837576,2000,8.0,4.0
# From MPEC 2020-L06
C/2020 B3 (Rankin),e,20.7100,185.8449,324.9924,1068,0.0000282,0.99687133,0.0000,10/19.4545/2019,2000,g 13.0,4.0
# From MPEC 2022-H04
P/2020 B4 (Sheppard),e,11.6083,185.9796,342.2562,7.967497,0.0438249,0.19173017,6.3967,04/17.0/2022,2000,g 10.5,4.0
# From MPEC 2022-H04
C/2020 F2 (ATLAS),h,07/15.8730/2022,163.5838,250.2684,48.3602,1.004880,8.817107,2000,4.5,4.0
# From MPEC 2021-O56
C/2020 F3 (NEOWISE),e,129.0003,61.0313,37.3082,341.6311,0.0001561,0.99913604,0.0000,07/03.6135/2020,2000,g  7.5,5.2
# From MPEC 2022-CN4
C/2020 F5 (MASTER),e,52.2860,350.5287,310.8987,419.9581,0.0001145,0.98970367,0.0000,03/21.2293/2021,2000,g  6.5,3.2
# From MPEC 2020-L06
C/2020 F6 (PANSTARRS),e,174.5829,207.9014,344.6140,412.7834,0.0001175,0.99149696,0.0000,04/11.7597/2020,2000,g 14.5,2.8
# From MPEC 2022-H04
C/2020 F7 (Lemmon),e,93.9518,321.8844,227.9629,657.6291,0.0000584,0.99189195,0.0000,11/13.9408/2021,2000,g  7.0,4.0
# From MPEC 2020-KB7
C/2020 F8 (SWAN),e,110.7300,259.9560,68.1730,266.1083,0.0002270,0.99838523,0.0000,05/27.5665/2020,2000,g 10.0,4.0
# From MPEC 2020-L06
P/2020 G1 (Pimentel),e,18.4896,240.1018,207.6292,3.609187,0.1437441,0.86001991,109.3382,04/17.0/2022,2000,g 17.0,4.0
# From MPEC 2020-L06
C/2020 H2 (Pruyne),e,124.9980,277.6524,26.7020,192.4412,0.0003692,0.99567092,0.0000,04/27.7151/2020,2000,g 18.0,4.0
# From MPEC 2020-HM1
C/2020 H3 (Wierzchos),p,06/05.7162/2020,62.5292,30.4456,2.300288,270.6227,2000,13.5,4.0
# From MPEC 2020-L06
C/2020 H4 (Leonard),e,84.5089,307.7194,117.5712,47.98929,0.0029647,0.98070481,0.0000,08/29.5671/2020,2000,g 15.0,3.2
# From MPEC 2022-GA9
C/2020 H5 (Robinson),e,70.2402,210.6287,326.3886,3503,0.0000048,0.99733259,0.0000,12/11.6671/2020,2000,g  5.0,4.0
# From MPEC 2022-H04
C/2020 H6 (ATLAS),h,10/01.0337/2021,79.9732,213.7104,20.3423,1.000442,4.702848,2000,8.0,3.2
# From MPEC 2020-KB7
C/2020 H7 (Lemmon),e,135.9235,323.5194,82.6780,1405,0.0000187,0.99685380,0.0000,06/02.9510/2020,2000,g 11.0,4.0
# From MPEC 2021-N06
C/2020 H8 (PANSTARRS),e,99.6606,68.4110,128.9467,591.3099,0.0000685,0.99209237,0.0000,06/04.4821/2020,2000,g 10.5,4.0
# From MPEC 2022-ED3
A/2020 H9,e,137.8723,213.1560,312.8651,367.9391,0.0001396,0.99299403,0.0000,12/21.3330/2019,2000,g 18.0,2.0
# From MPEC 2022-H04
C/2020 J1 (SONEAR),h,04/18.6370/2021,142.2997,226.5871,341.7615,1.000626,3.355137,2000,8.5,3.2
# From MPEC 2022-H04
C/2020 K1 (PANSTARRS),e,89.6612,94.3575,213.9751,24426,0.0000003,0.99987417,0.0000,05/09.0671/2023,2000,g  5.5,4.0
# From MPEC 2021-N06
C/2020 K2 (PANSTARRS),h,08/06.0103/2020,91.0372,288.3626,67.3339,1.003515,8.879214,2000,10.8,4.0
# From MPEC 2020-KF9
C/2020 K3 (Leonard),p,06/01.0032/2020,129.0152,64.4924,1.583069,28.3546,2000,14.5,4.0
# From MPEC 2020-L06
C/2020 K4 (PANSTARRS),e,125.5739,264.1294,308.8211,23.91559,0.0084272,0.92664890,6.5249,04/17.0/2022,2000,g 16.5,4.0
# From MPEC 2021-R75
C/2020 K5 (PANSTARRS),h,06/05.5696/2021,67.1461,86.1665,249.5954,1.001480,1.535855,2000,11.0,4.0
# From MPEC 2021-W31
C/2020 K6 (Rankin),h,09/15.6558/2021,103.6465,291.5310,44.3161,1.003295,5.868517,2000,8.0,4.0
# From MPEC 2021-S45
C/2020 K7 (PANSTARRS),e,32.0396,286.0682,358.2483,100.9729,0.0009714,0.93671480,0.8755,04/17.0/2022,2000,g  8.0,4.0
# From MPEC 2021-P47
C/2020 K8 (Catalina-ATLAS),h,09/14.5763/2020,31.4271,181.5402,259.9985,1.000150,0.473593,2000,15.0,3.2
# From MPEC 2021-BE3
P/2020 K9 (Lemmon-PANSTARRS),e,23.2098,166.2395,196.9441,4.200016,0.1145058,0.32140184,49.1149,04/17.0/2022,2000,g 12.5,4.0
# From MPEC 2021-U31
P/2020 M1 (PANSTARRS),e,8.5902,142.7722,72.1744,5.307313,0.0806106,0.47809896,67.6151,04/17.0/2022,2000,g 14.5,4.0
# From MPEC 2021-N06
C/2020 M3 (ATLAS),e,23.4719,71.2170,328.4808,26.95850,0.0070414,0.95296465,3.7904,04/17.0/2022,2000,g 14.5,4.0
# From MPEC 2022-CN4
A/2020 M4,h,11/24.1502/2020,160.1276,348.6213,104.6548,1.000305,5.952638,2000,14.5,2.0
# From MPEC 2022-H04
C/2020 M5 (ATLAS),h,08/19.8747/2021,93.2247,352.0937,126.3346,1.000297,3.004226,2000,9.0,4.0
# From MPEC 2022-GA9
C/2020 N1 (PANSTARRS),h,03/12.2195/2021,29.7059,279.9677,186.7593,1.000462,1.320165,2000,12.5,4.0
# From MPEC 2021-P47
C/2020 N2 (ATLAS),e,161.0353,257.1062,331.2802,103.2023,0.0009401,0.98261299,0.0000,08/23.8016/2020,2000,g 16.0,3.2
# From MPEC 2020-SI8
P/2020 O1 (Lemmon-PANSTARRS),e,5.2259,175.9752,104.5277,2.644800,0.2291473,0.11928551,163.7295,04/17.0/2022,2000,g 15.5,4.0
# From MPEC 2022-H04
C/2020 O2 (Amaral),h,08/28.6400/2021,71.7518,256.7580,10.3129,1.002291,4.862327,2000,8.0,3.2
# From MPEC 2020-SI8
P/2020 O3 (PANSTARRS),e,8.4426,266.8242,81.5759,4.649834,0.0982987,0.10378392,43.4385,04/17.0/2022,2000,g 12.0,4.0
# From MPEC 2021-BE3
C/2020 P1 (NEOWISE),h,10/20.2210/2020,45.1007,53.5123,8.8878,1.000272,0.341647,2000,14.0,3.2
# From MPEC 2022-H04
C/2020 P3 (ATLAS),e,61.8865,19.4720,82.2534,224741,0.0000000,0.99996969,0.0000,04/20.9045/2021,2000,g  6.0,4.0
# From MPEC 2022-H04
C/2020 PV6 (PANSTARRS),e,128.2390,329.1451,71.3887,41.85310,0.0036401,0.94514883,0.7389,04/17.0/2022,2000,g 10.0,4.0
# From MPEC 2021-N06
C/2020 Q1 (Borisov),e,142.9189,52.4113,9.9021,58.59739,0.0021973,0.97755453,0.0000,08/14.5364/2020,2000,g 14.0,4.0
# From MPEC 2022-C56
